CCSDS_OMM_VERS = 2.0
CREATION_DATE  = 
ORIGINATOR     = 

OBJECT_NAME    = IDEFIX & ARIANE 42P R/B
OBJECT_ID      = 2002-021B
CENTER_NAME    = EARTH
REF_FRAME      = TEME
TIME_SYSTEM    = UTC
MEAN_ELEMENT_THEORY = SGP/SGP4

EPOCH          = 2026-02-09T19:22:36.235776
MEAN_MOTION    = 14.31005896
ECCENTRICITY   = .0010658
INCLINATION    = 98.5841
RA_OF_ASC_NODE = 339.7521
ARG_OF_PERICENTER = 270.5320
MEAN_ANOMALY   = 89.4642

EPHEMERIS_TYPE = 0
CLASSIFICATION_TYPE = U
NORAD_CAT_ID   = 27422
ELEMENT_SET_NO = 999
REV_AT_EPOCH   = 24003
BSTAR          = .15106E-3
MEAN_MOTION_DOT = .354E-5
MEAN_MOTION_DDOT = 0

CCSDS_OMM_VERS = 2.0
CREATION_DATE  = 
ORIGINATOR     = 

OBJECT_NAME    = AQUA
OBJECT_ID      = 2002-022A
CENTER_NAME    = EARTH
REF_FRAME      = TEME
TIME_SYSTEM    = UTC
MEAN_ELEMENT_THEORY = SGP/SGP4

EPOCH          = 2026-02-09T19:51:40.663008
MEAN_MOTION    = 14.61907142
ECCENTRICITY   = .000147
INCLINATION    = 98.4124
RA_OF_ASC_NODE = 7.6964
ARG_OF_PERICENTER = 52.3339
MEAN_ANOMALY   = 4.4001

EPHEMERIS_TYPE = 0
CLASSIFICATION_TYPE = U
NORAD_CAT_ID   = 27424
ELEMENT_SET_NO = 999
REV_AT_EPOCH   = 26466
BSTAR          = .26295E-3
MEAN_MOTION_DOT = .1266E-4
MEAN_MOTION_DDOT = 0

CCSDS_OMM_VERS = 2.0
CREATION_DATE  = 
ORIGINATOR     = 

OBJECT_NAME    = CZ-4B R/B
OBJECT_ID      = 2002-024C
CENTER_NAME    = EARTH
REF_FRAME      = TEME
TIME_SYSTEM    = UTC
MEAN_ELEMENT_THEORY = SGP/SGP4

EPOCH          = 2026-02-09T18:57:04.375872
MEAN_MOTION    = 14.14542472
ECCENTRICITY   = .0051158
INCLINATION    = 98.8902
RA_OF_ASC_NODE = 94.3284
ARG_OF_PERICENTER = 102.1562
MEAN_ANOMALY   = 11.9179

EPHEMERIS_TYPE = 0
CLASSIFICATION_TYPE = U
NORAD_CAT_ID   = 27432
ELEMENT_SET_NO = 999
REV_AT_EPOCH   = 22529
BSTAR          = .44372E-4
MEAN_MOTION_DOT = .42E-6
MEAN_MOTION_DDOT = 0

CCSDS_OMM_VERS = 2.0
CREATION_DATE  = 
ORIGINATOR     = 

OBJECT_NAME    = MIDORI II (ADEOS-II)
OBJECT_ID      = 2002-056A
CENTER_NAME    = EARTH
REF_FRAME      = TEME
TIME_SYSTEM    = UTC
MEAN_ELEMENT_THEORY = SGP/SGP4

EPOCH          = 2026-02-09T19:14:17.044224
MEAN_MOTION    = 14.29263902
ECCENTRICITY   = .0002146
INCLINATION    = 98.7719
RA_OF_ASC_NODE = 359.0959
ARG_OF_PERICENTER = 81.9284
MEAN_ANOMALY   = 278.2141

EPHEMERIS_TYPE = 0
CLASSIFICATION_TYPE = U
NORAD_CAT_ID   = 27597
ELEMENT_SET_NO = 999
REV_AT_EPOCH   = 20631
BSTAR          = .1761E-3
MEAN_MOTION_DOT = .403E-5
MEAN_MOTION_DDOT = 0

CCSDS_OMM_VERS = 2.0
CREATION_DATE  = 
ORIGINATOR     = 

OBJECT_NAME    = H-2A R/B
OBJECT_ID      = 2002-056E
CENTER_NAME    = EARTH
REF_FRAME      = TEME
TIME_SYSTEM    = UTC
MEAN_ELEMENT_THEORY = SGP/SGP4

EPOCH          = 2026-02-09T19:00:45.437184
MEAN_MOTION    = 14.33740851
ECCENTRICITY   = .0069068
INCLINATION    = 98.3150
RA_OF_ASC_NODE = 2.2287
ARG_OF_PERICENTER = 244.3864
MEAN_ANOMALY   = 175.8638

EPHEMERIS_TYPE = 0
CLASSIFICATION_TYPE = U
NORAD_CAT_ID   = 27601
ELEMENT_SET_NO = 999
REV_AT_EPOCH   = 21011
BSTAR          = .14715E-3
MEAN_MOTION_DOT = .377E-5
MEAN_MOTION_DDOT = 0

CCSDS_OMM_VERS = 2.0
CREATION_DATE  = 
ORIGINATOR     = 

OBJECT_NAME    = CZ-4B R/B
OBJECT_ID      = 2003-049C
CENTER_NAME    = EARTH
REF_FRAME      = TEME
TIME_SYSTEM    = UTC
MEAN_ELEMENT_THEORY = SGP/SGP4

EPOCH          = 2026-02-09T14:25:36.208992
MEAN_MOTION    = 14.54989170
ECCENTRICITY   = .0047418
INCLINATION    = 98.6849
RA_OF_ASC_NODE = 34.4111
ARG_OF_PERICENTER = 318.5554
MEAN_ANOMALY   = 41.2049

EPHEMERIS_TYPE = 0
CLASSIFICATION_TYPE = U
NORAD_CAT_ID   = 28059
ELEMENT_SET_NO = 999
REV_AT_EPOCH   = 18251
BSTAR          = .14651E-3
MEAN_MOTION_DOT = .588E-5
MEAN_MOTION_DDOT = 0

CCSDS_OMM_VERS = 2.0
CREATION_DATE  = 
ORIGINATOR     = 

OBJECT_NAME    = CZ-2C R/B
OBJECT_ID      = 2004-012C
CENTER_NAME    = EARTH
REF_FRAME      = TEME
TIME_SYSTEM    = UTC
MEAN_ELEMENT_THEORY = SGP/SGP4

EPOCH          = 2026-02-09T16:36:57.681792
MEAN_MOTION    = 15.61311625
ECCENTRICITY   = .0015916
INCLINATION    = 97.7303
RA_OF_ASC_NODE = 103.3966
ARG_OF_PERICENTER = 56.6526
MEAN_ANOMALY   = 303.6251

EPHEMERIS_TYPE = 0
CLASSIFICATION_TYPE = U
NORAD_CAT_ID   = 28222
ELEMENT_SET_NO = 999
REV_AT_EPOCH   = 19990
BSTAR          = .56583E-3
MEAN_MOTION_DOT = .48431E-3
MEAN_MOTION_DDOT = 0

CCSDS_OMM_VERS = 2.0
CREATION_DATE  = 
ORIGINATOR     = 

OBJECT_NAME    = SL-16 R/B
OBJECT_ID      = 2004-021B
CENTER_NAME    = EARTH
REF_FRAME      = TEME
TIME_SYSTEM    = UTC
MEAN_ELEMENT_THEORY = SGP/SGP4

EPOCH          = 2026-02-09T19:24:04.890816
MEAN_MOTION    = 14.14590359
ECCENTRICITY   = .000298
INCLINATION    = 70.9997
RA_OF_ASC_NODE = 291.0067
ARG_OF_PERICENTER = 79.5806
MEAN_ANOMALY   = 280.5653

EPHEMERIS_TYPE = 0
CLASSIFICATION_TYPE = U
NORAD_CAT_ID   = 28353
ELEMENT_SET_NO = 999
REV_AT_EPOCH   = 11889
BSTAR          = .10622E-3
MEAN_MOTION_DOT = .156E-5
MEAN_MOTION_DDOT = 0

CCSDS_OMM_VERS = 2.0
CREATION_DATE  = 
ORIGINATOR     = 

OBJECT_NAME    = CZ-4B R/B
OBJECT_ID      = 2004-035C
CENTER_NAME    = EARTH
REF_FRAME      = TEME
TIME_SYSTEM    = UTC
MEAN_ELEMENT_THEORY = SGP/SGP4

EPOCH          = 2026-02-09T15:12:12.372192
MEAN_MOTION    = 15.28541757
ECCENTRICITY   = .0034101
INCLINATION    = 97.3549
RA_OF_ASC_NODE = 75.2178
ARG_OF_PERICENTER = 69.4243
MEAN_ANOMALY   = 291.0649

EPHEMERIS_TYPE = 0
CLASSIFICATION_TYPE = U
NORAD_CAT_ID   = 28415
ELEMENT_SET_NO = 999
REV_AT_EPOCH   = 17562
BSTAR          = .31529E-3
MEAN_MOTION_DOT = .8834E-4
MEAN_MOTION_DDOT = 0

CCSDS_OMM_VERS = 2.0
CREATION_DATE  = 
ORIGINATOR     = 

OBJECT_NAME    = CZ-2C R/B
OBJECT_ID      = 2004-046B
CENTER_NAME    = EARTH
REF_FRAME      = TEME
TIME_SYSTEM    = UTC
MEAN_ELEMENT_THEORY = SGP/SGP4

EPOCH          = 2026-02-09T18:55:29.327232
MEAN_MOTION    = 14.26982356
ECCENTRICITY   = .0138338
INCLINATION    = 98.1994
RA_OF_ASC_NODE = 317.5054
ARG_OF_PERICENTER = 237.1651
MEAN_ANOMALY   = 121.6149

EPHEMERIS_TYPE = 0
CLASSIFICATION_TYPE = U
NORAD_CAT_ID   = 28480
ELEMENT_SET_NO = 999
REV_AT_EPOCH   = 10452
BSTAR          = .74942E-4
MEAN_MOTION_DOT = .159E-5
MEAN_MOTION_DDOT = 0

CCSDS_OMM_VERS = 2.0
CREATION_DATE  = 
ORIGINATOR     = 

OBJECT_NAME    = ARIANE 5 R/B
OBJECT_ID      = 2004-049H
CENTER_NAME    = EARTH
REF_FRAME      = TEME
TIME_SYSTEM    = UTC
MEAN_ELEMENT_THEORY = SGP/SGP4

EPOCH          = 2026-02-09T11:19:53.302944
MEAN_MOTION    = 14.85208492
ECCENTRICITY   = .00855018
INCLINATION    = 98.2582
RA_OF_ASC_NODE = 207.8826
ARG_OF_PERICENTER = 82.7071
MEAN_ANOMALY   = 278.3851

EPHEMERIS_TYPE = 0
CLASSIFICATION_TYPE = U
NORAD_CAT_ID   = 28499
ELEMENT_SET_NO = 999
REV_AT_EPOCH   = 14160
BSTAR          = .13729564E-3
MEAN_MOTION_DOT = .1193E-4
MEAN_MOTION_DDOT = 0

CCSDS_OMM_VERS = 2.0
CREATION_DATE  = 
ORIGINATOR     = 

OBJECT_NAME    = CZ-2D R/B
OBJECT_ID      = 2005-024B
CENTER_NAME    = EARTH
REF_FRAME      = TEME
TIME_SYSTEM    = UTC
MEAN_ELEMENT_THEORY = SGP/SGP4

EPOCH          = 2026-02-09T14:13:45.496416
MEAN_MOTION    = 15.57680167
ECCENTRICITY   = .0007488
INCLINATION    = 97.3623
RA_OF_ASC_NODE = 54.7641
ARG_OF_PERICENTER = 114.5274
MEAN_ANOMALY   = 245.6763

EPHEMERIS_TYPE = 0
CLASSIFICATION_TYPE = U
NORAD_CAT_ID   = 28738
ELEMENT_SET_NO = 999
REV_AT_EPOCH   = 13540
BSTAR          = .51261E-3
MEAN_MOTION_DOT = .37999E-3
MEAN_MOTION_DDOT = 0

