IDEFIX & ARIANE 42P R/B 
1 27422U 02021B   26040.80736384  .00000354  00000+0  15106-3 0  9990
2 27422  98.5841 339.7521 0010658 270.5320  89.4642 14.31005896240032
AQUA                    
1 27424U 02022A   26040.82755397  .00001266  00000+0  26295-3 0  9994
2 27424  98.4124   7.6964 0001470  52.3339   4.4001 14.61907142264666
CZ-4B R/B               
1 27432U 02024C   26040.78963398  .00000042  00000+0  44372-4 0  9990
2 27432  98.8902  94.3284 0051158 102.1562  11.9179 14.14542472225295
MIDORI II (ADEOS-II)    
1 27597U 02056A   26040.80158616  .00000403  00000+0  17610-3 0  9994
2 27597  98.7719 359.0959 0002146  81.9284 278.2141 14.29263902206313
H-2A R/B                
1 27601U 02056E   26040.79219256  .00000377  00000+0  14715-3 0  9999
2 27601  98.3150   2.2287 0069068 244.3864 175.8638 14.33740851210114
CZ-4B R/B               
1 28059U 03049C   26040.60111353  .00000588  00000+0  14651-3 0  9992
2 28059  98.6849  34.4111 0047418 318.5554  41.2049 14.54989170182514
CZ-2C R/B               
1 28222U 04012C   26040.69233428  .00048431  00000+0  56583-3 0  9991
2 28222  97.7303 103.3966 0015916  56.6526 303.6251 15.61311625199906
SL-16 R/B               
1 28353U 04021B   26040.80838994  .00000156  00000+0  10622-3 0  9994
2 28353  70.9997 291.0067 0002980  79.5806 280.5653 14.14590359118890
CZ-4B R/B               
1 28415U 04035C   26040.63347653  .00008834  00000+0  31529-3 0  9996
2 28415  97.3549  75.2178 0034101  69.4243 291.0649 15.28541757175623
CZ-2C R/B               
1 28480U 04046B   26040.78853388  .00000159  00000+0  74942-4 0  9992
2 28480  98.1994 317.5054 0138338 237.1651 121.6149 14.26982356104522
ARIANE 5 R/B            
1 28499U 04049H   26040.47214471  .00001193  00000+0  13730-3 0  9991
2 28499  98.2582 207.8826 0085501  82.7071 278.3851 14.85208492141604
CZ-2D R/B               
1 28738U 05024B   26040.59288769  .00037999  00000+0  51261-3 0  9999
2 28738  97.3623  54.7641 0007488 114.5274 245.6763 15.57680167135400
